{
    "links": {
        "self": "http://www.neowsapp.com/rest/v1/neo/3753696?api_key=iIulBulltgU6a56xZRHN4H3l9WmuAYTsLGpBGhQ2"
    },
    "id": "3753696",
    "neo_reference_id": "3753696",
    "name": "(2016 LL1)",
    "designation": "2016 LL1",
    "nasa_jpl_url": "http://ssd.jpl.nasa.gov/sbdb.cgi?sstr=3753696",
    "absolute_magnitude_h": 21.3,
    "estimated_diameter": {
        "kilometers": {
            "estimated_diameter_min": 0.1460679643,
            "estimated_diameter_max": 0.3266178974
        },
        "meters": {
            "estimated_diameter_min": 146.0679642714,
            "estimated_diameter_max": 326.6178974458
        },
        "miles": {
            "estimated_diameter_min": 0.090762397,
            "estimated_diameter_max": 0.2029508896
        },
        "feet": {
            "estimated_diameter_min": 479.2256199,
            "estimated_diameter_max": 1071.581062656
        }
    },
    "is_potentially_hazardous_asteroid": false,
    "close_approach_data": [
        {
            "close_approach_date": "2016-05-11",
            "close_approach_date_full": "2016-May-11 05:09",
            "epoch_date_close_approach": 1462943340000,
            "relative_velocity": {
                "kilometers_per_second": "14.3031625334",
                "kilometers_per_hour": "51491.3851203556",
                "miles_per_hour": "31994.7442710343"
            },
            "miss_distance": {
                "astronomical": "0.3058649521",
                "lunar": "118.9814663669",
                "kilometers": "45756745.341812027",
                "miles": "28431923.1496068926"
            },
            "orbiting_body": "Earth"
        },
        {
            "close_approach_date": "2018-07-18",
            "close_approach_date_full": "2018-Jul-18 16:42",
            "epoch_date_close_approach": 1531932120000,
            "relative_velocity": {
                "kilometers_per_second": "19.7601036366",
                "kilometers_per_hour": "71136.3730919087",
                "miles_per_hour": "44201.3758248029"
            },
            "miss_distance": {
                "astronomical": "0.4103981306",
                "lunar": "159.6448728034",
                "kilometers": "61394686.189741822",
                "miles": "38148889.0108162636"
            },
            "orbiting_body": "Earth"
        }
    ],
    "orbital_data": {
        "orbit_id": "4",
        "orbit_determination_date": "2017-04-06 08:25:37",
        "first_observation_date": "2016-06-02",
        "last_observation_date": "2016-06-05",
        "data_arc_in_days": 3,
        "observations_used": 27,
        "orbit_uncertainty": "9",
        "minimum_orbit_intersection": ".261523",
        "jupiter_tisserand_invariant": "6.335",
        "epoch_osculation": "2457542.5",
        "eccentricity": ".3854063984118793",
        "semi_major_axis": ".925582309186887",
        "inclination": "23.62733525369496",
        "ascending_node_longitude": "83.0760231729992",
        "orbital_period": "325.252763176763",
        "perihelion_distance": ".5688569649694184",
        "perihelion_argument": "358.657998335983",
        "aphelion_distance": "1.282307653404356",
        "perihelion_time": "2457421.508672565076",
        "mean_anomaly": "133.9170110382769",
        "mean_motion": "1.106831488482553",
        "equinox": "J2000",
        "orbit_class": {
            "orbit_class_type": "ATE",
            "orbit_class_description": "Near-Earth asteroid orbits similar to that of 2062 Aten",
            "orbit_class_range": "a (semi-major axis) < 1.0 AU; q (perihelion) > 0.983 AU"
        }
    },
    "is_sentry_object": false
}